NORAD_CAT_ID,OBJECT_NAME,OBJECT_TYPE,EPOCH,MEAN_MOTION,ECCENTRICITY,INCLINATION,RA_OF_ASC_NODE,ARG_OF_PERICENTER,MEAN_ANOMALY,BSTAR,MEAN_MOTION_DOT,MEAN_MOTION_DDOT,TLE_LINE0,TLE_LINE1,TLE_LINE2,SEMIMAJOR_AXIS,PERIOD,APOGEE,PERIGEE,DECAYED
55417.0,STARLINK-5616,PAYLOAD,2023-07-02 00:59:56,14.9833357,0.0003034,69.9998,39.4252,269.0349,91.0463,1.6985e-05,1.1e-06,0.0,0 STARLINK-5616,1 55417U 23014AC  23183.04162068  .00000110  00000-0  16985-4 0  9991,2 55417  69.9998  39.4252 0003034 269.0349  91.0463 14.98333570 24521,6950.182,96.107,574.156,569.938,0.0
55417.0,STARLINK-5616,PAYLOAD,2023-07-03 07:26:29,14.98330289,0.0003041,69.9998,36.2269,269.7843,90.2968,3.4082e-06,-5.2e-07,0.0,0 STARLINK-5616,1 55417U 23014AC  23184.31006117 -.00000052  00000-0  34082-5 0  9999,2 55417  69.9998  36.2269 0003041 269.7843  90.2968 14.98330289 24714,6950.192,96.107,574.171,569.943,0.0
55417.0,STARLINK-5616,PAYLOAD,2023-07-04 17:05:18,14.98330217,0.000308,69.9997,32.6919,270.2229,89.8577,-2.6459e-05,-4.09e-06,0.0,0 STARLINK-5616,1 55417U 23014AC  23185.71202197 -.00000409  00000-0 -26459-4 0  9995,2 55417  69.9997  32.6919 0003080 270.2229  89.8577 14.98330217 24927,6950.192,96.107,574.198,569.917,0.0
55417.0,STARLINK-5616,PAYLOAD,2023-07-05 23:31:51,14.98329384,0.0003109,69.9995,29.4931,269.3452,90.735,1.6812e-05,1.08e-06,0.0,0 STARLINK-5616,1 55417U 23014AC  23186.98046131  .00000108  00000-0  16812-4 0  9995,2 55417  69.9995  29.4931 0003109 269.3452  90.7350 14.98329384 25117,6950.195,96.107,574.221,569.899,0.0
55417.0,STARLINK-5616,PAYLOAD,2023-07-07 05:58:25,14.98314674,0.0003026,69.9994,26.2947,270.2381,89.8432,0.00033914,3.954e-05,0.0,0 STARLINK-5616,1 55417U 23014AC  23188.24890268  .00003954  00000-0  33914-3 0  9997,2 55417  69.9994  26.2947 0003026 270.2381  89.8432 14.98314674 25305,6950.24,96.108,574.208,570.002,0.0
55417.0,STARLINK-5616,PAYLOAD,2023-07-07 15:35:13,14.98328117,0.0003101,69.9995,25.2847,270.1484,89.932,5.0036e-06,-3.3e-07,0.0,0 STARLINK-5616,1 55417U 23014AC  23188.64946071 -.00000033  00000-0  50036-5 0  9997,2 55417  69.9995  25.2847 0003101 270.1484  89.9320 14.98328117 25361,6950.199,96.107,574.219,569.908,0.0
55417.0,STARLINK-5616,PAYLOAD,2023-07-08 18:49:30,14.98328914,0.0003146,69.9993,22.4231,267.9963,92.0836,-6.7867e-05,-9.03e-06,0.0,0 STARLINK-5616,1 55417U 23014AC  23189.78438164 -.00000903  00000-0 -67867-4 0  9998,2 55417  69.9993  22.4231 0003146 267.9963  92.0836 14.98328914 25531,6950.196,96.107,574.248,569.875,0.0
55417.0,STARLINK-5616,PAYLOAD,2023-07-09 18:51:31,14.98331226,0.0003242,69.9996,19.8979,269.2377,90.8411,-2.1393e-05,-3.48e-06,0.0,0 STARLINK-5616,1 55417U 23014AC  23190.78577874 -.00000348  00000-0 -21393-4 0  9999,2 55417  69.9996  19.8979 0003242 269.2377  90.8411 14.98331226 25685,6950.189,96.107,574.307,569.801,0.0
55417.0,STARLINK-5616,PAYLOAD,2023-07-10 22:05:48,14.98331544,0.000329,69.9997,17.0357,269.3436,90.7346,4.826e-05,4.83e-06,0.0,0 STARLINK-5616,1 55417U 23014AC  23191.92069609  .00000483  00000-0  48260-4 0  9998,2 55417  69.9997  17.0357 0003290 269.3436  90.7346 14.98331544 25854,6950.188,96.107,574.34,569.767,0.0
55417.0,STARLINK-5616,PAYLOAD,2023-07-11 22:07:49,14.98332828,0.0003249,69.9999,14.5112,268.6796,91.3991,1.7587e-05,1.17e-06,0.0,0 STARLINK-5616,1 55417U 23014AC  23192.92209582  .00000117  00000-0  17587-4 0  9997,2 55417  69.9999  14.5112 0003249 268.6796  91.3991 14.98332828 26009,6950.184,96.107,574.307,569.791,0.0
55417.0,STARLINK-5616,PAYLOAD,2023-07-13 15:47:18,14.98329044,0.0003136,70.0004,10.1346,269.7285,90.3515,-6.2952e-06,-1.68e-06,0.0,0 STARLINK-5616,1 55417U 23014AC  23194.65785722 -.00000168  00000-0 -62952-5 0  9999,2 55417  70.0004  10.1346 0003136 269.7285  90.3515 14.98329044 26265,6950.196,96.107,574.24,569.881,0.0
55417.0,STARLINK-5616,PAYLOAD,2023-07-14 17:25:27,14.98328813,0.0003109,70.0007,7.442,266.9958,93.0845,-2.2765e-05,-3.65e-06,0.0,0 STARLINK-5616,1 55417U 23014AC  23195.72601759 -.00000365  00000-0 -22765-4 0  9991,2 55417  70.0007   7.4420 0003109 266.9958  93.0845 14.98328813 26423,6950.197,96.107,574.222,569.901,0.0
55417.0,STARLINK-5616,PAYLOAD,2023-07-15 17:27:28,14.98328986,0.0003329,70.0001,4.9168,272.7246,87.3532,-2.2577e-05,-3.62e-06,0.0,0 STARLINK-5616,1 55417U 23014AC  23196.72741761 -.00000362  00000-0 -22577-4 0  9998,2 55417  70.0001   4.9168 0003329 272.7246  87.3532 14.98328986 26573,6950.196,96.107,574.375,569.747,0.0
55417.0,STARLINK-5616,PAYLOAD,2023-07-16 17:29:29,14.98327832,0.0003285,70.0002,2.392,270.3667,89.7115,-7.8187e-06,-1.86e-06,0.0,0 STARLINK-5616,1 55417U 23014AC  23197.72881884 -.00000186  00000-0 -78187-5 0  9993,2 55417  70.0002   2.3920 0003285 270.3667  89.7115 14.98327832 26723,6950.2,96.107,574.348,569.781,0.0
55417.0,STARLINK-5616,PAYLOAD,2023-07-17 17:31:30,14.98335549,0.0003295,70.0003,359.8671,269.6888,90.3894,6.3128e-05,6.6e-06,0.0,0 STARLINK-5616,1 55417U 23014AC  23198.73021143  .00000660  00000-0  63128-4 0  9992,2 55417  70.0003 359.8671 0003295 269.6888  90.3894 14.98335549 26876,6950.176,96.107,574.331,569.751,0.0
55417.0,STARLINK-5616,PAYLOAD,2023-07-18 11:08:59,14.98327597,0.0003206,70.0006,358.0154,269.5091,90.5701,2.3402e-05,1.86e-06,0.0,0 STARLINK-5616,1 55417U 23014AC  23199.46457595  .00000186  00000-0  23402-4 0  9991,2 55417  70.0006 358.0154 0003206 269.5091  90.5701 14.98327597 26988,6950.2,96.107,574.294,569.837,0.0
55417.0,STARLINK-5616,PAYLOAD,2023-07-18 20:45:47,14.98332532,0.0003182,70.0007,357.0054,269.2133,90.8662,5.5485e-05,5.69e-06,0.0,0 STARLINK-5616,1 55417U 23014AC  23199.86513169  .00000569  00000-0  55485-4 0  9996,2 55417  70.0007 357.0054 0003182 269.2133  90.8662 14.98332532 27046,6950.185,96.107,574.262,569.839,0.0
55417.0,STARLINK-5616,PAYLOAD,2023-07-19 17:35:32,14.98326416,0.0002906,70.0016,354.8191,265.9873,94.0954,-0.00010694,-1.369e-05,0.0,0 STARLINK-5616,1 55417U 23014AC  23200.73302041 -.00001369  00000-0 -10694-3 0  9993,2 55417  70.0016 354.8191 0002906 265.9873  94.0954 14.98326416 27178,6950.204,96.107,574.089,570.049,0.0
55417.0,STARLINK-5616,PAYLOAD,2023-07-20 17:37:33,14.98333927,0.0003111,70.0011,352.2925,266.7477,93.3326,3.1867e-05,2.87e-06,0.0,0 STARLINK-5616,1 55417U 23014AC  23201.73441071  .00000287  00000-0  31867-4 0  9993,2 55417  70.0011 352.2925 0003111 266.7477  93.3326 14.98333927 27325,6950.181,96.107,574.208,569.884,0.0
55417.0,STARLINK-5616,PAYLOAD,2023-07-21 09:38:53,14.98327897,0.0003199,70.0011,350.6092,269.373,90.7063,5.4199e-05,5.54e-06,0.0,0 STARLINK-5616,1 55417U 23014AC  23202.40201300  .00000554  00000-0  54199-4 0  9997,2 55417  70.0011 350.6092 0003199 269.3730  90.7063 14.98327897 27428,6950.199,96.107,574.288,569.841,0.0
55417.0,STARLINK-5616,PAYLOAD,2023-07-24 08:08:48,14.98332595,0.0003494,70.001,343.2027,275.711,84.3651,5.0023e-05,5.04e-06,0.0,0 STARLINK-5616,1 55417U 23014AC  23205.33945101  .00000504  00000-0  50023-4 0  9993,2 55417  70.0010 343.2027 0003494 275.7110  84.3651 14.98332595 27865,6950.185,96.107,574.478,569.621,0.0
55417.0,STARLINK-5616,PAYLOAD,2023-07-25 11:23:05,14.983304,0.0003354,70.0001,340.3401,267.8838,92.1937,2.9514e-06,-5.8e-07,0.0,0 STARLINK-5616,1 55417U 23014AC  23206.47437144 -.00000058  00000-0  29514-5 0  9999,2 55417  70.0001 340.3401 0003354 267.8838  92.1937 14.98330400 28030,6950.192,96.107,574.388,569.726,0.0
55417.0,STARLINK-5616,PAYLOAD,2023-07-26 11:25:06,14.98330229,0.0003436,70.0008,337.8165,270.0932,89.9833,-3.2647e-05,-4.83e-06,0.0,0 STARLINK-5616,1 55417U 23014AC  23207.47577156 -.00000483  00000-0 -32647-4 0  9991,2 55417  70.0008 337.8165 0003436 270.0932  89.9833 14.98330229 28181,6950.192,96.107,574.445,569.669,0.0
55417.0,STARLINK-5616,PAYLOAD,2023-07-27 01:50:18,14.98334003,0.0003381,70.001,336.3018,270.764,89.3131,6.7497e-05,7.13e-06,0.0,0 STARLINK-5616,1 55417U 23014AC  23208.07660492  .00000713  00000-0  67497-4 0  9999,2 55417  70.0010 336.3018 0003381 270.7640  89.3131 14.98334003 28276,6950.181,96.107,574.395,569.696,0.0
55417.0,STARLINK-5616,PAYLOAD,2023-07-27 14:39:24,14.98322091,0.0003564,70.0008,334.9555,272.3332,87.7419,-2.6994e-05,-4.15e-06,0.0,0 STARLINK-5616,1 55417U 23014AC  23208.61069527 -.00000415  00000-0 -26994-4 0  9999,2 55417  70.0008 334.9555 0003564 272.3332  87.7419 14.98322091 28356,6950.217,96.108,574.559,569.605,0.0
55417.0,STARLINK-5616,PAYLOAD,2023-07-27 17:51:40,14.98324822,0.0003573,70.0006,334.6185,273.6049,86.4702,-2.4431e-05,-3.85e-06,0.0,0 STARLINK-5616,1 55417U 23014AC  23208.74421386 -.00000385  00000-0 -24431-4 0  9998,2 55417  70.0006 334.6185 0003573 273.6049  86.4702 14.98324822 28376,6950.209,96.107,574.557,569.591,0.0
55417.0,STARLINK-5616,PAYLOAD,2023-07-28 08:16:52,14.98324611,0.0003288,70.0012,333.1046,269.3896,90.6886,-1.5434e-05,-2.77e-06,0.0,0 STARLINK-5616,1 55417U 23014AC  23209.34505519 -.00000277  00000-0 -15434-4 0  9999,2 55417  70.0012 333.1046 0003288 269.3896  90.6886 14.98324611 28464,6950.21,96.107,574.36,569.789,0.0
55417.0,STARLINK-5616,PAYLOAD,2023-07-28 17:53:40,14.98331473,0.000348,70.0004,332.0939,268.205,91.8711,-3.7786e-05,-5.44e-06,0.0,0 STARLINK-5616,1 55417U 23014AC  23209.74561181 -.00000544  00000-0 -37786-4 0  9991,2 55417  70.0004 332.0939 0003480 268.2050  91.8711 14.98331473 28529,6950.188,96.107,574.472,569.635,0.0
55417.0,STARLINK-5616,PAYLOAD,2023-07-29 17:55:40,14.98340115,0.0003467,70.0005,329.5683,266.3726,93.7037,0.00012074,1.348e-05,0.0,0 STARLINK-5616,1 55417U 23014AC  23210.74700022  .00001348  00000-0  12074-3 0  9995,2 55417  70.0005 329.5683 0003467 266.3726  93.7037 14.98340115 28672,6950.162,96.106,574.436,569.617,0.0
55417.0,STARLINK-5616,PAYLOAD,2023-07-30 09:57:02,14.98327417,0.0003353,70.0005,327.8847,267.4497,92.6278,1.4225e-05,7.7e-07,0.0,0 STARLINK-5616,1 55417U 23014AC  23211.41461036  .00000077  00000-0  14225-4 0  9998,2 55417  70.0005 327.8847 0003353 267.4497  92.6278 14.98327417 28772,6950.201,96.107,574.396,569.735,0.0
